NORAD_CAT_ID,OBJECT_NAME,OBJECT_TYPE,EPOCH,MEAN_MOTION,ECCENTRICITY,INCLINATION,RA_OF_ASC_NODE,ARG_OF_PERICENTER,MEAN_ANOMALY,BSTAR,MEAN_MOTION_DOT,MEAN_MOTION_DDOT,TLE_LINE0,TLE_LINE1,TLE_LINE2,SEMIMAJOR_AXIS,PERIOD,APOGEE,PERIGEE,DECAYED
52639.0,STARLINK-3968,PAYLOAD,2024-03-10 21:24:06,15.08842382,0.0001779,53.2162,290.8228,93.6392,266.4803,-1.9209e-05,-5.94e-06,0.0,0 STARLINK-3968,1 52639U 22052AT  24070.89174146 -.00000594  00000-0 -19209-4 0  9994,2 52639  53.2162 290.8228 0001779  93.6392 266.4803 15.08842382101915,6917.873,95.437,540.969,538.507,0.0
52639.0,STARLINK-3968,PAYLOAD,2024-03-11 14:53:20,15.0883612,0.0001245,53.2162,287.5522,93.5979,266.5156,3.4746e-05,2.65e-06,0.0,0 STARLINK-3968,1 52639U 22052AT  24071.62038134  .00000265  00000-0  34746-4 0  9998,2 52639  53.2162 287.5522 0001245  93.5979 266.5156 15.08836120102021,6917.892,95.438,540.619,538.896,0.0
52639.0,STARLINK-3968,PAYLOAD,2024-03-12 14:44:08,15.08834343,0.000131,53.2162,283.0931,89.855,270.2592,5.0816e-05,5.21e-06,0.0,0 STARLINK-3968,1 52639U 22052AT  24072.61398462  .00000521  00000-0  50816-4 0  9992,2 52639  53.2162 283.0931 0001310  89.8550 270.2592 15.08834343101741,6917.898,95.438,540.669,538.856,0.0
52639.0,STARLINK-3968,PAYLOAD,2024-03-12 21:05:40,15.08833172,0.0001299,53.2161,281.9027,88.1745,271.9396,3.8996e-05,3.33e-06,0.0,0 STARLINK-3968,1 52639U 22052AT  24072.87894658  .00000333  00000-0  38996-4 0  9994,2 52639  53.2161 281.9027 0001299  88.1745 271.9396 15.08833172102219,6917.901,95.438,540.665,538.868,0.0
52639.0,STARLINK-3968,PAYLOAD,2024-03-13 06:37:59,15.08838292,0.000136,53.2167,280.1173,86.2773,273.8375,7.5592e-05,9.15e-06,0.0,0 STARLINK-3968,1 52639U 22052AT  24073.27638306  .00000915  00000-0  75592-4 0  9994,2 52639  53.2167 280.1173 0001360  86.2773 273.8375 15.08838292102279,6917.886,95.438,540.691,538.81,0.0
52639.0,STARLINK-3968,PAYLOAD,2024-03-13 22:31:51,15.0883513,0.0001809,53.2156,277.1422,78.6698,281.4497,4.7034e-05,4.6e-06,0.0,0 STARLINK-3968,1 52639U 22052AT  24073.93878922  .00000460  00000-0  47034-4 0  9992,2 52639  53.2156 277.1422 0001809  78.6698 281.4497 15.08835130102378,6917.895,95.438,541.012,538.509,0.0
52639.0,STARLINK-3968,PAYLOAD,2024-03-14 00:07:14,15.0883527,0.0001814,53.2155,276.8447,78.5181,281.6015,4.7034e-05,4.6e-06,0.0,0 STARLINK-3968,1 52639U 22052AT  24074.00502932  .00000460  00000-0  47034-4 0  9996,2 52639  53.2155 276.8447 0001814  78.5181 281.6015 15.08835270101958,6917.895,95.438,541.015,538.505,0.0
52639.0,STARLINK-3968,PAYLOAD,2024-03-14 06:28:46,15.08840014,0.0001948,53.2157,275.6563,83.871,276.2504,9.6392e-05,1.246e-05,0.0,0 STARLINK-3968,1 52639U 22052AT  24074.26998565  .00001246  00000-0  96392-4 0  9999,2 52639  53.2157 275.6563 0001948  83.8710 276.2504 15.08840014102429,6917.88,95.438,541.093,538.398,0.0
52639.0,STARLINK-3968,PAYLOAD,2024-03-14 22:22:38,15.08833874,0.0001088,53.2172,272.6821,72.2533,287.8577,0.00010708,1.417e-05,0.0,0 STARLINK-3968,1 52639U 22052AT  24074.93238898  .00001417  00000-0  10708-3 0  9995,2 52639  53.2172 272.6821 0001088  72.2533 287.8577 15.08833874102525,6917.899,95.438,540.517,539.011,0.0
52639.0,STARLINK-3968,PAYLOAD,2024-03-15 12:41:06,15.08819375,0.0001449,53.2167,270.006,91.0243,269.0915,0.00036306,5.492e-05,0.0,0 STARLINK-3968,1 52639U 22052AT  24075.52855157  .00005492  00000-0  36306-3 0  9993,2 52639  53.2167 270.0060 0001449  91.0243 269.0915 15.08819375102184,6917.943,95.439,540.811,538.806,0.0
52639.0,STARLINK-3968,PAYLOAD,2024-03-16 12:31:53,15.08842285,0.0001355,53.2165,265.5464,87.5076,272.6071,5.3984e-05,5.71e-06,0.0,0 STARLINK-3968,1 52639U 22052AT  24076.52214436  .00000571  00000-0  53984-4 0  9998,2 52639  53.2165 265.5464 0001355  87.5076 272.6071 15.08842285102335,6917.873,95.437,540.676,538.801,0.0
52639.0,STARLINK-3968,PAYLOAD,2024-03-16 18:53:25,15.08842434,0.000117,53.2152,264.3543,105.1983,254.9138,5.1956e-05,5.39e-06,0.0,0 STARLINK-3968,1 52639U 22052AT  24076.78710331  .00000539  00000-0  51956-4 0  9992,2 52639  53.2152 264.3543 0001170 105.1983 254.9138 15.08842434102800,6917.873,95.437,540.547,538.929,0.0
52639.0,STARLINK-3968,PAYLOAD,2024-03-17 13:58:03,15.08838334,0.0001252,53.2153,260.7873,87.8457,272.2678,2.2844e-05,7.6e-07,0.0,0 STARLINK-3968,1 52639U 22052AT  24077.58198650  .00000076  00000-0  22844-4 0  9995,2 52639  53.2153 260.7873 0001252  87.8457 272.2678 15.08838334102929,6917.885,95.438,540.617,538.884,0.0
52639.0,STARLINK-3968,PAYLOAD,2024-03-17 20:19:35,15.08842164,0.0001247,53.2154,259.5975,88.6017,271.5118,5.3385e-05,5.62e-06,0.0,0 STARLINK-3968,1 52639U 22052AT  24077.84694320  .00000562  00000-0  53385-4 0  9993,2 52639  53.2154 259.5975 0001247  88.6017 271.5118 15.08842164102538,6917.874,95.437,540.601,538.876,0.0
52639.0,STARLINK-3968,PAYLOAD,2024-03-17 21:54:58,15.08842911,0.0001243,53.2152,259.3003,88.8672,271.2462,6.0903e-05,6.82e-06,0.0,0 STARLINK-3968,1 52639U 22052AT  24077.91318239  .00000682  00000-0  60903-4 0  9990,2 52639  53.2152 259.3003 0001243  88.8672 271.2462 15.08842911102978,6917.871,95.437,540.596,538.877,0.0
52639.0,STARLINK-3968,PAYLOAD,2024-03-18 12:13:27,15.08836782,0.0001272,53.2153,256.6234,92.5469,267.5668,3.524e-05,2.73e-06,0.0,0 STARLINK-3968,1 52639U 22052AT  24078.50934694  .00000273  00000-0  35240-4 0  9997,2 52639  53.2153 256.6234 0001272  92.5469 267.5668 15.08836782103069,6917.89,95.438,540.635,538.875,0.0
52639.0,STARLINK-3968,PAYLOAD,2024-03-18 21:45:47,15.08819968,8.56e-05,53.2153,254.84,272.2472,87.8422,-0.0001066,-1.983e-05,0.0,0 STARLINK-3968,1 52639U 22052AT  24078.90680303 -.00001983  00000-0 -10660-3 0  9995,2 52639  53.2153 254.8400 0000856 272.2472  87.8422 15.08819968103127,6917.942,95.439,540.399,539.214,0.0
52639.0,STARLINK-3968,PAYLOAD,2024-03-19 12:04:16,15.08817895,0.000106,53.2157,252.1637,275.2664,84.8207,1.033e-05,-1.23e-06,0.0,0 STARLINK-3968,1 52639U 22052AT  24079.50296781 -.00000123  00000-0  10330-4 0  9994,2 52639  53.2157 252.1637 0001060 275.2664  84.8207 15.08817895103213,6917.948,95.439,540.546,539.08,0.0
52639.0,STARLINK-3968,PAYLOAD,2024-03-19 21:36:33,15.08851246,0.0001372,53.2158,250.378,81.931,278.1838,0.00019078,2.751e-05,0.0,0 STARLINK-3968,1 52639U 22052AT  24079.90038522  .00002751  00000-0  19078-3 0  9990,2 52639  53.2158 250.3780 0001372  81.9310 278.1838 15.08851246102843,6917.846,95.437,540.66,538.762,0.0
52639.0,STARLINK-3968,PAYLOAD,2024-03-20 10:19:38,15.08841093,0.0001718,53.2159,247.9935,148.0712,212.0384,0.0001016,1.329e-05,0.0,0 STARLINK-3968,1 52639U 22052AT  24080.43031179  .00001329  00000-0  10160-3 0  9994,2 52639  53.2159 247.9935 0001718 148.0712 212.0384 15.08841093102924,6917.877,95.437,540.931,538.554,0.0
52639.0,STARLINK-3968,PAYLOAD,2024-03-20 11:55:02,15.08830544,0.0001377,53.2174,247.7052,310.5473,49.5399,0.00019546,2.823e-05,0.0,0 STARLINK-3968,1 52639U 22052AT  24080.49655608  .00002823  00000-0  19546-3 0  9996,2 52639  53.2174 247.7052 0001377 310.5473  49.5399 15.08830544103367,6917.909,95.438,540.727,538.822,0.0
52639.0,STARLINK-3968,PAYLOAD,2024-03-20 18:16:35,15.08831888,8.54e-05,53.2164,246.5132,313.0815,47.0105,0.00019067,2.747e-05,0.0,0 STARLINK-3968,1 52639U 22052AT  24080.76151695  .00002747  00000-0  19067-3 0  9996,2 52639  53.2164 246.5132 0000854 313.0815  47.0105 15.08831888102975,6917.905,95.438,540.361,539.179,0.0
52639.0,STARLINK-3968,PAYLOAD,2024-03-21 03:48:53,15.0884823,9.11e-05,53.216,244.728,81.1476,278.962,0.00011693,1.574e-05,0.0,0 STARLINK-3968,1 52639U 22052AT  24081.15895294  .00001574  00000-0  11693-3 0  9994,2 52639  53.2160 244.7280 0000911  81.1476 278.9620 15.08848230103039,6917.855,95.437,540.35,539.09,0.0
52639.0,STARLINK-3968,PAYLOAD,2024-03-21 14:56:36,15.08845132,0.0001235,53.2176,242.6482,95.3641,264.7492,-4.9675e-05,-1.078e-05,0.0,0 STARLINK-3968,1 52639U 22052AT  24081.62263927 -.00001078  00000-0 -49675-4 0  9991,2 52639  53.2176 242.6482 0001235  95.3641 264.7492 15.08845132103531,6917.865,95.437,540.584,538.875,0.0
52639.0,STARLINK-3968,PAYLOAD,2024-03-21 19:42:44,15.08855339,0.0001584,53.2173,241.7555,87.6463,272.4711,3.9053e-05,3.34e-06,0.0,0 STARLINK-3968,1 52639U 22052AT  24081.82135028  .00000334  00000-0  39053-4 0  9994,2 52639  53.2173 241.7555 0001584  87.6463 272.4711 15.08855339103565,6917.834,95.437,540.794,538.603,0.0
52639.0,STARLINK-3968,PAYLOAD,2024-03-22 10:01:13,15.08838813,5.49e-05,53.2159,239.078,49.6685,310.4355,1.0613e-05,-1.19e-06,0.0,0 STARLINK-3968,1 52639U 22052AT  24082.41751705 -.00000119  00000-0  10613-4 0  9999,2 52639  53.2159 239.0780 0000549  49.6685 310.4355 15.08838813103221,6917.884,95.438,540.129,539.369,0.0
52639.0,STARLINK-3968,PAYLOAD,2024-03-22 14:47:22,15.08839722,0.0001312,53.217,238.1878,98.8546,261.2595,9.8546e-05,1.281e-05,0.0,0 STARLINK-3968,1 52639U 22052AT  24082.61623336  .00001281  00000-0  98546-4 0  9990,2 52639  53.2170 238.1878 0001312  98.8546 261.2595 15.08839722103682,6917.881,95.438,540.654,538.839,0.0
52639.0,STARLINK-3968,PAYLOAD,2024-03-22 17:58:08,15.08845036,0.0001429,53.2165,237.592,102.6454,257.4698,9.8232e-05,1.276e-05,0.0,0 STARLINK-3968,1 52639U 22052AT  24082.74870928  .00001276  00000-0  98232-4 0  9991,2 52639  53.2165 237.5920 0001429 102.6454 257.4698 15.08845036103279,6917.865,95.437,540.719,538.741,0.0
52639.0,STARLINK-3968,PAYLOAD,2024-03-23 19:24:19,15.08833442,0.0001698,53.2159,232.8326,49.539,310.575,0.00022734,3.331e-05,0.0,0 STARLINK-3968,1 52639U 22052AT  24083.80855564  .00003331  00000-0  22734-3 0  9995,2 52639  53.2159 232.8326 0001698  49.5390 310.5750 15.08833442103432,6917.9,95.438,540.94,538.591,0.0
52639.0,STARLINK-3968,PAYLOAD,2024-03-24 03:21:12,15.08869547,0.000126,53.2176,231.3488,60.0337,300.078,1.179e-05,-1e-06,0.0,0 STARLINK-3968,1 52639U 22052AT  24084.13973313 -.00000100  00000-0  11790-4 0  9998,2 52639  53.2176 231.3488 0001260  60.0337 300.0780 15.08869547103485,6917.79,95.436,540.527,538.783,0.0
